SL-16 R/B               
1 22566U 93016B   25339.28394643 -.00000182  00000+0 -69098-4 0  9999
2 22566  71.0090  53.4625 0007804 111.8750 248.3203 14.15288286688815
COSMOS 2242             
1 22626U 93024A   25339.14485306  .00004747  00000+0  41965-3 0  9998
2 22626  82.5192 357.1048 0014777 262.4799  97.4744 14.96059237766257
SL-16 R/B               
1 22803U 93059B   25339.10926823  .00000336  00000+0  19012-3 0  9991
2 22803  70.9897 210.5766 0017535 346.7816  13.2846 14.17211337666136
ARIANE 40 R/B           
1 22830U 93061H   25339.21589760  .00000545  00000+0  21562-3 0  9996
2 22830  98.5086  44.8824 0010447 198.4835 161.5971 14.32793782680579
COSMOS 2278             
1 23087U 94023A   25339.32194381 -.00000010  00000+0  19657-4 0  9994
2 23087  71.0550  12.5302 0008731 191.1996 168.8933 14.14351298631464
SL-16 R/B               
1 23088U 94023B   25339.27011870  .00000372  00000+0  21691-3 0  9990
2 23088  71.0004 269.1717 0001076  61.7401 298.3831 14.14999493632739
SL-16 R/B               
1 23343U 94074B   25339.09910955  .00001035  00000+0  14585-3 0  9993
2 23343  97.7210   8.7072 0006994 158.1139 263.6832 14.79276617673267
SL-16 R/B               
1 23405U 94077B   25339.28852370  .00000102  00000+0  76839-4 0  9997
2 23405  70.9811 191.0891 0004573 289.7964  70.2666 14.15546019602871
ARIANE 40+ R/B          
1 23561U 95021B   25339.23203985  .00000676  00000+0  22990-3 0  9991
2 23561  98.4660  46.9112 0007719  69.5876 358.8202 14.39686751605650
SL-16 R/B               
1 23705U 95058B   25339.29085630  .00000385  00000+0  22130-3 0  9995
2 23705  71.0226  18.4437 0014899 264.5871  95.3552 14.15480065554498
SL-16 R/B               
1 24298U 96051B   25339.26475842  .00000046  00000+0  51375-4 0  9990
2 24298  70.7600  15.1066 0019267 270.6455  89.2457 14.12395337508310
ORBVIEW 2 (SEASTAR)     
1 24883U 97037A   25339.31734699  .00000646  00000+0  24112-3 0  9993
2 24883  98.8454 136.2051 0002024   5.2555 354.8651 14.35408613494939
