CCSDS_OMM_VERS = 2.0
CREATION_DATE  = 
ORIGINATOR     = 

OBJECT_NAME    = SL-16 R/B
OBJECT_ID      = 1993-016B
CENTER_NAME    = EARTH
REF_FRAME      = TEME
TIME_SYSTEM    = UTC
MEAN_ELEMENT_THEORY = SGP/SGP4

EPOCH          = 2025-12-05T06:48:52.971552
MEAN_MOTION    = 14.15288286
ECCENTRICITY   = .00078043
INCLINATION    = 71.0090
RA_OF_ASC_NODE = 53.4625
ARG_OF_PERICENTER = 111.8750
MEAN_ANOMALY   = 248.3203

EPHEMERIS_TYPE = 0
CLASSIFICATION_TYPE = U
NORAD_CAT_ID   = 22566
ELEMENT_SET_NO = 999
REV_AT_EPOCH   = 68881
BSTAR          = -.69098477E-4
MEAN_MOTION_DOT = -.182E-5
MEAN_MOTION_DDOT = 0

CCSDS_OMM_VERS = 2.0
CREATION_DATE  = 
ORIGINATOR     = 

OBJECT_NAME    = COSMOS 2242
OBJECT_ID      = 1993-024A
CENTER_NAME    = EARTH
REF_FRAME      = TEME
TIME_SYSTEM    = UTC
MEAN_ELEMENT_THEORY = SGP/SGP4

EPOCH          = 2025-12-05T03:28:35.304384
MEAN_MOTION    = 14.96059237
ECCENTRICITY   = .00147777
INCLINATION    = 82.5192
RA_OF_ASC_NODE = 357.1048
ARG_OF_PERICENTER = 262.4799
MEAN_ANOMALY   = 97.4744

EPHEMERIS_TYPE = 0
CLASSIFICATION_TYPE = U
NORAD_CAT_ID   = 22626
ELEMENT_SET_NO = 999
REV_AT_EPOCH   = 76625
BSTAR          = .41964985E-3
MEAN_MOTION_DOT = .4747E-4
MEAN_MOTION_DDOT = 0

CCSDS_OMM_VERS = 2.0
CREATION_DATE  = 
ORIGINATOR     = 

OBJECT_NAME    = SL-16 R/B
OBJECT_ID      = 1993-059B
CENTER_NAME    = EARTH
REF_FRAME      = TEME
TIME_SYSTEM    = UTC
MEAN_ELEMENT_THEORY = SGP/SGP4

EPOCH          = 2025-12-05T02:37:20.775072
MEAN_MOTION    = 14.17211337
ECCENTRICITY   = .00175355
INCLINATION    = 70.9897
RA_OF_ASC_NODE = 210.5766
ARG_OF_PERICENTER = 346.7816
MEAN_ANOMALY   = 13.2846

EPHEMERIS_TYPE = 0
CLASSIFICATION_TYPE = U
NORAD_CAT_ID   = 22803
ELEMENT_SET_NO = 999
REV_AT_EPOCH   = 66613
BSTAR          = .19012453E-3
MEAN_MOTION_DOT = .336E-5
MEAN_MOTION_DDOT = 0

CCSDS_OMM_VERS = 2.0
CREATION_DATE  = 
ORIGINATOR     = 

OBJECT_NAME    = ARIANE 40 R/B
OBJECT_ID      = 1993-061H
CENTER_NAME    = EARTH
REF_FRAME      = TEME
TIME_SYSTEM    = UTC
MEAN_ELEMENT_THEORY = SGP/SGP4

EPOCH          = 2025-12-05T05:10:53.552640
MEAN_MOTION    = 14.32793782
ECCENTRICITY   = .00104475
INCLINATION    = 98.5086
RA_OF_ASC_NODE = 44.8824
ARG_OF_PERICENTER = 198.4835
MEAN_ANOMALY   = 161.5971

EPHEMERIS_TYPE = 0
CLASSIFICATION_TYPE = U
NORAD_CAT_ID   = 22830
ELEMENT_SET_NO = 999
REV_AT_EPOCH   = 68057
BSTAR          = .21562142E-3
MEAN_MOTION_DOT = .545E-5
MEAN_MOTION_DDOT = 0

CCSDS_OMM_VERS = 2.0
CREATION_DATE  = 
ORIGINATOR     = 

OBJECT_NAME    = COSMOS 2278
OBJECT_ID      = 1994-023A
CENTER_NAME    = EARTH
REF_FRAME      = TEME
TIME_SYSTEM    = UTC
MEAN_ELEMENT_THEORY = SGP/SGP4

EPOCH          = 2025-12-05T07:43:35.945184
MEAN_MOTION    = 14.14351298
ECCENTRICITY   = .00087313
INCLINATION    = 71.0550
RA_OF_ASC_NODE = 12.5302
ARG_OF_PERICENTER = 191.1996
MEAN_ANOMALY   = 168.8933

EPHEMERIS_TYPE = 0
CLASSIFICATION_TYPE = U
NORAD_CAT_ID   = 23087
ELEMENT_SET_NO = 999
REV_AT_EPOCH   = 63146
BSTAR          = .19656911E-4
MEAN_MOTION_DOT = -.1E-6
MEAN_MOTION_DDOT = 0

CCSDS_OMM_VERS = 2.0
CREATION_DATE  = 
ORIGINATOR     = 

OBJECT_NAME    = SL-16 R/B
OBJECT_ID      = 1994-023B
CENTER_NAME    = EARTH
REF_FRAME      = TEME
TIME_SYSTEM    = UTC
MEAN_ELEMENT_THEORY = SGP/SGP4

EPOCH          = 2025-12-05T06:28:58.255680
MEAN_MOTION    = 14.14999493
ECCENTRICITY   = .00010768
INCLINATION    = 71.0004
RA_OF_ASC_NODE = 269.1717
ARG_OF_PERICENTER = 61.7401
MEAN_ANOMALY   = 298.3831

EPHEMERIS_TYPE = 0
CLASSIFICATION_TYPE = U
NORAD_CAT_ID   = 23088
ELEMENT_SET_NO = 999
REV_AT_EPOCH   = 63273
BSTAR          = .21690716E-3
MEAN_MOTION_DOT = .372E-5
MEAN_MOTION_DDOT = 0

CCSDS_OMM_VERS = 2.0
CREATION_DATE  = 
ORIGINATOR     = 

OBJECT_NAME    = SL-16 R/B
OBJECT_ID      = 1994-074B
CENTER_NAME    = EARTH
REF_FRAME      = TEME
TIME_SYSTEM    = UTC
MEAN_ELEMENT_THEORY = SGP/SGP4

EPOCH          = 2025-12-05T02:22:43.065120
MEAN_MOTION    = 14.79276617
ECCENTRICITY   = .00069943
INCLINATION    = 97.7210
RA_OF_ASC_NODE = 8.7072
ARG_OF_PERICENTER = 158.1139
MEAN_ANOMALY   = 263.6832

EPHEMERIS_TYPE = 0
CLASSIFICATION_TYPE = U
NORAD_CAT_ID   = 23343
ELEMENT_SET_NO = 999
REV_AT_EPOCH   = 67326
BSTAR          = .14585469E-3
MEAN_MOTION_DOT = .1035E-4
MEAN_MOTION_DDOT = 0

CCSDS_OMM_VERS = 2.0
CREATION_DATE  = 
ORIGINATOR     = 

OBJECT_NAME    = SL-16 R/B
OBJECT_ID      = 1994-077B
CENTER_NAME    = EARTH
REF_FRAME      = TEME
TIME_SYSTEM    = UTC
MEAN_ELEMENT_THEORY = SGP/SGP4

EPOCH          = 2025-12-05T06:55:28.447680
MEAN_MOTION    = 14.15546019
ECCENTRICITY   = .00045733
INCLINATION    = 70.9811
RA_OF_ASC_NODE = 191.0891
ARG_OF_PERICENTER = 289.7964
MEAN_ANOMALY   = 70.2666

EPHEMERIS_TYPE = 0
CLASSIFICATION_TYPE = U
NORAD_CAT_ID   = 23405
ELEMENT_SET_NO = 999
REV_AT_EPOCH   = 60287
BSTAR          = .76838635E-4
MEAN_MOTION_DOT = .102E-5
MEAN_MOTION_DDOT = 0

CCSDS_OMM_VERS = 2.0
CREATION_DATE  = 
ORIGINATOR     = 

OBJECT_NAME    = ARIANE 40+ R/B
OBJECT_ID      = 1995-021B
CENTER_NAME    = EARTH
REF_FRAME      = TEME
TIME_SYSTEM    = UTC
MEAN_ELEMENT_THEORY = SGP/SGP4

EPOCH          = 2025-12-05T05:34:08.243040
MEAN_MOTION    = 14.39686751
ECCENTRICITY   = .00077191
INCLINATION    = 98.4660
RA_OF_ASC_NODE = 46.9112
ARG_OF_PERICENTER = 69.5876
MEAN_ANOMALY   = 358.8202

EPHEMERIS_TYPE = 0
CLASSIFICATION_TYPE = U
NORAD_CAT_ID   = 23561
ELEMENT_SET_NO = 999
REV_AT_EPOCH   = 60565
BSTAR          = .22990197E-3
MEAN_MOTION_DOT = .676E-5
MEAN_MOTION_DDOT = 0

CCSDS_OMM_VERS = 2.0
CREATION_DATE  = 
ORIGINATOR     = 

OBJECT_NAME    = SL-16 R/B
OBJECT_ID      = 1995-058B
CENTER_NAME    = EARTH
REF_FRAME      = TEME
TIME_SYSTEM    = UTC
MEAN_ELEMENT_THEORY = SGP/SGP4

EPOCH          = 2025-12-05T06:58:49.984320
MEAN_MOTION    = 14.15480065
ECCENTRICITY   = .00148999
INCLINATION    = 71.0226
RA_OF_ASC_NODE = 18.4437
ARG_OF_PERICENTER = 264.5871
MEAN_ANOMALY   = 95.3552

EPHEMERIS_TYPE = 0
CLASSIFICATION_TYPE = U
NORAD_CAT_ID   = 23705
ELEMENT_SET_NO = 999
REV_AT_EPOCH   = 55449
BSTAR          = .22129987E-3
MEAN_MOTION_DOT = .385E-5
MEAN_MOTION_DDOT = 0

CCSDS_OMM_VERS = 2.0
CREATION_DATE  = 
ORIGINATOR     = 

OBJECT_NAME    = SL-16 R/B
OBJECT_ID      = 1996-051B
CENTER_NAME    = EARTH
REF_FRAME      = TEME
TIME_SYSTEM    = UTC
MEAN_ELEMENT_THEORY = SGP/SGP4

EPOCH          = 2025-12-05T06:21:15.127488
MEAN_MOTION    = 14.12395337
ECCENTRICITY   = .00192678
INCLINATION    = 70.7600
RA_OF_ASC_NODE = 15.1066
ARG_OF_PERICENTER = 270.6455
MEAN_ANOMALY   = 89.2457

EPHEMERIS_TYPE = 0
CLASSIFICATION_TYPE = U
NORAD_CAT_ID   = 24298
ELEMENT_SET_NO = 999
REV_AT_EPOCH   = 50831
BSTAR          = .51374942E-4
MEAN_MOTION_DOT = .46E-6
MEAN_MOTION_DDOT = 0

CCSDS_OMM_VERS = 2.0
CREATION_DATE  = 
ORIGINATOR     = 

OBJECT_NAME    = ORBVIEW 2 (SEASTAR)
OBJECT_ID      = 1997-037A
CENTER_NAME    = EARTH
REF_FRAME      = TEME
TIME_SYSTEM    = UTC
MEAN_ELEMENT_THEORY = SGP/SGP4

EPOCH          = 2025-12-05T07:36:58.779936
MEAN_MOTION    = 14.35408613
ECCENTRICITY   = .00020245
INCLINATION    = 98.8454
RA_OF_ASC_NODE = 136.2051
ARG_OF_PERICENTER = 5.2555
MEAN_ANOMALY   = 354.8651

EPHEMERIS_TYPE = 0
CLASSIFICATION_TYPE = U
NORAD_CAT_ID   = 24883
ELEMENT_SET_NO = 999
REV_AT_EPOCH   = 49493
BSTAR          = .24111544E-3
MEAN_MOTION_DOT = .646E-5
MEAN_MOTION_DDOT = 0

